IRIDIUM 149             
1 43250U 18030B   24363.41471423  .00000176  00000+0  55838-4 0  9996
2 43250  86.3992 154.3523 0002086  97.3373 262.8060 14.34218539353368
IRIDIUM 157             
1 43251U 18030C   24363.29420045  .00000290  00000+0  96479-4 0  9990
2 43251  86.3992 154.4438 0002216  92.6856 267.4593 14.34215811353322
IRIDIUM 140             
1 43252U 18030D   24363.38299408  .00000674  00000+0  23353-3 0  9994
2 43252  86.3997 154.4209 0001780  93.2363 266.9036 14.34215452353393
IRIDIUM 145             
1 43253U 18030E   24363.44006999  .00000865  00000+0  30178-3 0  9998
2 43253  86.3993 154.3701 0001849 104.7689 255.3712 14.34226036353338
IRIDIUM 148             
1 43255U 18030G   24363.38933775  .00000515  00000+0  17681-3 0  9990
2 43255  86.3991 154.4402 0002098  98.9928 261.1505 14.34221868353382
IRIDIUM 142             
1 43256U 18030H   24363.35762757 -.00000151  00000+0 -60878-4 0  9993
2 43256  86.3996 154.3625 0001982 107.1930 252.9483 14.34220058353339
